TEVEL2-1                
1 63217U 25052H   26068.64782323  .00020683  00000+0  70600-3 0  9994
2 63217  97.3991 324.7682 0004767 104.8919 255.2849 15.30341923 54855
STARLINK-35519          
1 65919U 25225K   26068.56082691  .00022007  00000+0  75334-3 0  9990
2 65919  53.1573 165.9062 0001012  85.3609 274.7507 15.30182599 24393
